"ID","NAME","CITY","STATE","ZIP","LATITUDE","LONGITUDE"
"12142728","T J HEALTH COLUMBIA","COLUMBIA","KY","42728","37.0966415730001","-85.29454565"
"1042539","CASEY COUNTY HOSPITAL","LIBERTY","KY","42539","37.3177168120001","-84.933171913"
"5240336","MARCUM AND WALLACE MEMORIAL HOSPITAL","IRVINE","KY","40336","37.7061970980001","-83.977277144"
"3641653","HIGHLANDS REGIONAL MEDICAL CENTER","PRESTONSBURG","KY","41653","37.729010056","-82.767320076"
"7140207","NORTON WOMEN'S AND KOSAIR CHILDREN'S HOSPITAL","LOUISVILLE","KY","40207","38.235330086","-85.6329369279999"
"9440215","SAINTS MARY & ELIZABETH HOSPITAL","LOUISVILLE","KY","40215","38.178264384","-85.793916414"
"10640207","THE BROOK - DUPONT","LOUISVILLE","KY","40207","38.235696632","-85.6273409469999"
"240031","BAPTIST HEALTH LA GRANGE","LAGRANGE","KY","40031","38.394890194","-85.3760651539999"
"9140504","SAINT JOSEPH HOSPITAL","LEXINGTON","KY","40504","38.032339732","-84.52329929"
"9540502","SHRINERS HOSPITAL FOR CHILDREN","LEXINGTON","KY","40502","38.0227066090001","-84.472698523"
"11442754","TWIN LAKES REGIONAL MEDICAL CENTER","LEITCHFIELD","KY","42754","37.4725153040001","-86.288593089"
"7341101","OUR LADY OF BELLEFONTE HOSPITAL","ASHLAND","KY","41101","38.5084543190001","-82.692616508"
"2640444","GARRARD COUNTY HOSPITAL","LANCASTER","KY","40444","37.6220260640001","-84.585157253"
"2440601","FRANKFORT REGIONAL MEDICAL CENTER","FRANKFORT","KY","40601","38.160661745","-84.906893698"
"10942101","THE MEDICAL CENTER AT BOWLING GREEN","BOWLING GREEN","KY","42101","36.9959715050001","-86.42975938"
"2040484","EPHRAIM MCDOWELL FORT LOGAN HOSPITAL","STANFORD","KY","40484","37.54279432","-84.653036559"
"4942078","LIVINGSTON HOSPITAL AND HEALTHCARE SERVICES","SALEM","KY","42078","37.2630531890001","-88.228502459"
"5842420","METHODIST HOSPITAL","HENDERSON","KY","42420","37.854974612","-87.583199016"
"440383","BLUEGRASS COMMUNITY HOSPITAL","VERSAILLES","KY","40383","38.0547656890001","-84.7237883399999"
"10542718","TAYLOR REGIONAL HOSPITAL","CAMPBELLSVILLE","KY","42718","37.3663517620001","-85.338106556"
"8742642","RUSSELL COUNTY HOSPITAL","RUSSELL SPRINGS","KY","42642","37.05758045","-85.067352806"
"8640456","ROCKCASTLE REGIONAL HOSPITAL & RESPIRATORY CARE CENTER","MT VERNON","KY","40456","37.3579643200001","-84.3359033199999"
"140207","BAPTIST HEALTH LOUISVILLE","LOUISVILLE","KY","40207","38.238118248","-85.637144295"
"4040202","JEWISH HOSPITAL & ST. MARY'S HEALTHCARE","LOUISVILLE","KY","40202","38.2491316470001","-85.751189499"
"4440204","KINDRED HOSPITAL - LOUISVILLE","LOUISVILLE","KY","40204","38.2426565160001","-85.731237729"
"7540205","OUR LADY OF PEACE","LOUISVILLE","KY","40205","38.2188090000001","-85.71059213"
"11740202","UNIVERSITY OF LOUISVILLE HOSPITAL","LOUISVILLE","KY","40202","38.248322961","-85.7443359649999"
"7941240","PAUL B HALL REGIONAL MEDICAL CENTER","PAINTSVILLE","KY","41240","37.8155109360001","-82.813051295"
"5641056","MEADOWVIEW REGIONAL MEDICAL CENTER","MAYSVILLE","KY","41056","38.6399743760001","-83.808105166"
"10041042","ST. ELIZABETH FLORENCE","FLORENCE","KY","41042","39.0165918180001","-84.630767205"
"8140977","PINEVILLE COMMUNITY HOSPITAL","PINEVILLE","KY","40977","36.76291694","-83.707768726"
"2140422","EPHRAIM MCDOWELL REGIONAL MEDICAL CENTER","DANVILLE","KY","40422","37.6438733050001","-84.773001139"
"9740033","SPRING VIEW HOSPITAL","LEBANON","KY","40033","37.5698288780001","-85.2614564089999"
"6342345","OWENSBORO HEALTH MUHLENBERG COMMUNITY HOSPITAL","GREENVILLE","KY","42345","37.1965353910001","-87.189294499"
"742445","CALDWELL MEDICAL CENTER","PRINCETON","KY","42445","37.113674313","-87.909600476"
"10442141","T J SAMSON COMMUNITY HOSPITAL","GLASGOW","KY","42141","37.011392389","-85.9045139739999"
"12042240","WESTERN STATE HOSPITAL","HOPKINSVILLE","KY","42240","36.864669216","-87.451266717"
"8041501","PIKEVILLE MEDICAL CENTER","PIKEVILLE","KY","41501","37.471241666","-82.522247497"
"3341701","HAZARD ARH REGIONAL MEDICAL CENTER","HAZARD","KY","41701","37.2782979460001","-83.227882237"
"12341503","TUG VALLEY ARH REGIONAL MEDICAL CENTER","SOUTH WILLIAMSON","KY","41503","37.6765106440001","-82.297022722"
"189541018","SUN BEHAVIORAL HEALTH","ERLANGER","KY","41018","39.038841","-84.594436"
"14737331","STARR REGIONAL MEDICAL CENTER ETOWAH","ETOWAH","TN","37331","35.3450986180001","-84.522719356"
"7642303","OWENSBORO HEALTH","OWENSBORO","KY","42303","37.766669","-87.100834"
"3438562","JACKSON COUNTY HOSPITAL","GAINESBORO","TN","38562","36.3488070600001","-85.656244273"
"8038401","MAURY REGIONAL HOSPITAL","COLUMBIA","TN","38401","35.6071638650001","-87.0668911079999"
"8338305","WEST TENNESSEE HEALTHCARE NORTH HOSPITAL","JACKSON","TN","38305","35.6844471110001","-88.854048475"
"6538242","HENRY COUNTY MEDICAL CENTER","PARIS","TN","38242","36.2965426920001","-88.310304585"
"10840330","EPHRAIM MCDOWELL JAMES B. HAGGIN MEMORIAL HOSPITAL","HARRODSBURG","KY","40330","37.7570638770001","-84.848739113"
"137830","METHODIST MEDICAL CENTER OF OAK RIDGE","OAK RIDGE","TN","37830","36.024545109","-84.245085527"
"437367","ERLANGER BLEDSOE","PIKEVILLE","TN","37367","35.620685972","-85.190868827"
"14837371","STARR REGIONAL MEDICAL CENTER","ATHENS","TN","37371","35.440814994","-84.607352873"
"2237207","TRISTAR SKYLINE MEDICAL CENTER","NASHVILLE","TN","37207","36.2453409300001","-86.7496189839999"
"7737402","KINDRED HOSPITAL - CHATTANOOGA","CHATTANOOGA","TN","37402","35.0475781420001","-85.307706217"
"2737403","ERLANGER MEDICAL CENTER","CHATTANOOGA","TN","37403","35.0488941250001","-85.2900474479999"
"6037172","NORTHCREST MEDICAL CENTER","SPRINGFIELD","TN","37172","36.478480081","-86.886901925"
"637762","JELLICO MEDICAL CENTER","JELLICO","TN","37762","36.573701364","-84.128543594"
"10237604","JOHNSON CITY MEDICAL CENTER","JOHNSON CITY","TN","37604","36.307843099","-82.384562638"
"15937067","WILLIAMSON MEDICAL CENTER","FRANKLIN","TN","37067","35.9161622550001","-86.819250043"
"15137321","RHEA MEDICAL CENTER","DAYTON","TN","37321","35.529101344","-84.981779456"
"6137130","SAINT THOMAS RUTHERFORD HOSPITAL","MURFREESBORO","TN","37130","35.860579123","-86.4250313759999"
"4037917","TENNOVA HEALTHCARE PHYSICIANS REGIONAL MEDICAL CENTER","KNOXVILLE","TN","37917","35.992383583","-83.9268177559999"
"11337620","BRISTOL REGIONAL MEDICAL CENTER","BRISTOL","TN","37620","36.585516446","-82.256923265"
"15237869","HANCOCK COUNTY HOSPITAL","SNEEDVILLE","TN","37869","36.533332982","-83.215108141"
"11537660","HOLSTON VALLEY MEDICAL CENTER","KINGSPORT","TN","37660","36.554103173","-82.554607246"
"102442431","BAPTIST HEALTH MADISONVILLE","MADISONVILLE","KY","42431","37.340597841","-87.493349446"
"5942437","METHODIST HOSPITAL UNION COUNTY","MORGANFIELD","KY","42437","37.628796461","-87.94765598"
"4140065","JEWISH HOSPITAL SHELBYVILLE","SHELBYVILLE","KY","40065","38.209027706","-85.23592218"
"11042134","THE MEDICAL CENTER AT FRANKLIN","FRANKLIN","KY","42134","36.7000175790001","-86.576828386"
"1842240","CUMBERLAND HALL HOSPITAL","HOPKINSVILLE","KY","42240","36.7382516600001","-87.468403327"
"3942241","JENNIE STUART MEDICAL CENTER","HOPKINSVILLE","KY","42241","36.8611871160001","-87.4949512479999"
"8543202","RIVER VALLEY BEHAVIORAL HEALTH","OWENSBORO","KY","43202","37.784866924","-87.157643566"
"12540202","KOSAIR CHILDREN'S HOSPITAL","LOUISVILLE","KY","40202","38.248470297","-85.74959418"
"7742041","PARKWAY REGIONAL HOSPITAL","FULTON","KY","42041","36.51903178","-88.8956740579999"
"3042701","HARDIN MEMORIAL HOSPITAL","ELIZABETHTOWN","KY","42701","37.7099441","-85.876296328"
"3541017","ENCOMPASS HEALTH REHABILITATION HOSPITAL OF NORTHERN KENTUCKY","EDGEWOOD","KY","41017","39.0126122660001","-84.5666151949999"
"7242347","OHIO COUNTY HOSPITAL","HARTFORD","KY","42347","37.448466985","-86.8964476849999"
"7038008","BOLIVAR GENERAL HOSPITAL","BOLIVAR","TN","38008","35.2675724850001","-88.999292391"
"4341339","KENTUCKY RIVER MEDICAL CENTER","JACKSON","KY","41339","37.565887269","-83.369620641"
"640143","BRECKINRIDGE MEMORIAL HOSPITAL","HARDINSBURG","KY","40143","37.766570137","-86.440390448"
"5042276","LOGAN MEMORIAL HOSPITAL","RUSSELLVILLE","KY","42276","36.8157100060001","-86.881501633"
"10141075","ST. ELIZABETH FT. THOMAS","FT. THOMAS","KY","41075","39.078660723","-84.467677507"
"11942003","BAPTIST HEALTH PADUCAH","PADUCAH","KY","42003","37.0737593790001","-88.6265971939999"
"1742717","CUMBERLAND COUNTY HOSPITAL","BURKESVILLE","KY","42717","36.796194579","-85.372962066"
"5740962","MEMORIAL HOSPITAL INC","MANCHESTER","KY","40962","37.1619776520001","-83.762024017"
"11142164","THE MEDICAL CENTER AT SCOTTSVILLE","SCOTTSVILLE","KY","42164","36.7614750290001","-86.2149691609999"
"5541647","MCDOWELL ARH HOSPITAL","MCDOWELL","KY","41647","37.456706463","-82.7472078659999"
"8841649","ARH OUR LADY OF THE WAY","MARTIN","KY","41649","37.57882455","-82.750307752"
"1142749","THE MEDICAL CENTER AT CAVERNA","HORSE CAVE","KY","42749","37.1613061480001","-85.923038156"
"17037777","PENINSULA HOSPITAL","LOUISVILLE","TN","37777","35.8703936750001","-84.02278841"
"17237748","ROANE MEDICAL CENTER","HARRIMAN","TN","37748","35.8886048620001","-84.556007063"
"10241097","ST. ELIZABETH GRANT","WILLIAMSTOWN","KY","41097","38.6472036480001","-84.578168434"
"4840160","LINCOLN TRAIL BEHAVIORAL HEALTH SYSTEM","RADCLIFF","KY","40160","37.787923683","-85.9147806349999"
"2341041","FLEMING COUNTY HOSPITAL","FLEMINGSBURG","KY","41041","38.4221510450001","-83.7515453089999"
"1240503","BAPTIST HEALTH LEXINGTON","LEXINGTON","KY","40503","38.018805193","-84.511857714"
"1940508","EASTERN STATE HOSPITAL","LEXINGTON","KY","40511","38.082924061","-84.4979543379999"
"3241031","HARRISON MEMORIAL HOSPITAL","CYNTHIANA","KY","41031","38.3839687290001","-84.277686455"
"11342211","TRIGG COUNTY HOSPITAL INC.","CADIZ","KY","42211","36.866340232","-87.8215387819999"
"9642104","SOUTHERN KENTUCKY REHABILITATION HOSPITAL","BOWLING GREEN","KY","42104","36.9570388130001","-86.44648889"
"5441749","MARY BRECKINRIDGE ARH HOSPITAL","HYDEN","KY","41749","37.1641059790001","-83.378583855"
"11842633","WAYNE COUNTY HOSPITAL","MONTICELLO","KY","42633","36.81986477","-84.866892605"
"340701","BAPTIST HEALTH CORBIN","CORBIN","KY","40701","36.9228221980001","-84.119729913"
"4640906","BARBOURVILLE ARH HOSPITAL","BARBOURVILLE","KY","40906","36.8510510180001","-83.870165646"
"9240741","SAINT JOSEPH HOSPITAL LONDON","LONDON","KY","40741","37.117712112","-84.109002367"
"11241230","THREE RIVERS MEDICAL CENTER","LOUISA","KY","41230","38.092486637","-82.604408295"
"1340223","CENTRAL STATE HOSPITAL","LOUISVILLE","KY","40223","38.27219096","-85.55809622"
"8940403","SAINT JOSEPH BEREA","BEREA","KY","40403","37.5760949580001","-84.2865705519999"
"5342025","MARSHALL COUNTY HOSPITAL","BENTON","KY","42025","36.867083618","-88.3697993919999"
"2540202","FRAZIER REHAB INSTITUTE","LOUISVILLE","KY","40202","38.2489557580001","-85.750218461"
"6840217","NORTON AUDUBON HOSPITAL","LOUISVILLE","KY","40217","38.215127395","-85.722813645"
"6940241","NORTON BROWNSBORO HOSPITAL","LOUISVILLE","KY","40241","38.3153256800001","-85.575894454"
"10740242","THE BROOK HOSPITAL - KMI","LOUISVILLE","KY","40242","38.2725393000001","-85.596478775"
"6741012","NORTHKEY COMMUNITY CARE-INTENSIVE SERVICES","COVINGTON","KY","41012","39.049609047","-84.529347397"
"10341014","ST. ELIZABETH COVINGTON","COVINGTON","KY","41011","39.071348372","-84.517999891"
"6040965","MIDDLESBORO ARH HOSPITAL","MIDDLESBORO","KY","40965","36.6058264650001","-83.7401927339999"
"5142003","LOURDES HOSPITAL","PADUCAH","KY","42003","37.0506390190001","-88.647368956"
"173640206","ROBLEY REX VA MEDICAL CENTER","LOUISVILLE","KY","40206","38.2702590000001","-85.696895"
"175640502","LEXINGTON VA MEDICAL CENTER - COOPER","LEXINGTON","KY","40502","38.0298040000001","-84.506404"
"173741075","CINCINNATI VA MEDICAL CENTER - FORT THOMAS","FT THOMAS","KY","41075","39.064603","-84.445641"
"2937203","SELECT SPECIALTY HOSPITAL - NASHVILLE","NASHVILLE","TN","37203","36.1527654590001","-86.801163257"
"102640475","BAPTIST HEALTH RICHMOND","RICHMOND","KY","40475","37.7309230120001","-84.2923692799999"
"2437218","CURAHEALTH NASHVILLE","NASHVILLE","TN","37218","36.1774680680001","-86.84612428"
"17637620","SELECT SPECIALTY HOSPITAL - TRICITIES","BRISTOL","TN","37620","36.5852451870001","-82.256366471"
"12937916","SELECT SPECIALTY HOSPITAL - KNOXVILLE","KNOXVILLE","TN","37916","35.957245872","-83.936698318"
"8437083","MACON COUNTY GENERAL HOSPITAL","LAFAYETTE","TN","37083","36.519701502","-86.026293955"
"8938118","DELTA MEDICAL CENTER","MEMPHIS","TN","38118","35.0670674560001","-89.9311511929999"
"8238301","JACKSON - MADISON COUNTY GENERAL HOSPITAL","JACKSON","TN","38301","35.636732657","-88.831789686"
"7637403","SISKIN HOSPITAL FOR PHYSICAL REHABILITATION","CHATTANOOGA","TN","37403","35.0503636080001","-85.291596912"
"5537096","PERRY COMMUNITY HOSPITAL","LINDEN","TN","37096","35.592323332","-87.863755268"
"5738501","COOKEVILLE REGIONAL MEDICAL CENTER","COOKEVILLE","TN","38501","36.169326788","-85.508762582"
"18138301","WEST TENNESSEE HEALTHCARE REHABILITATION HOSPITAL","JACKSON","TN","38301","35.6348766770001","-88.828420369"
"12440232","NORTON HEALTHCARE PAVILION","LOUISVILLE","KY","40232","38.2460051750001","-85.748718539"
"175740511","LEXINGTON VA MEDICAL CENTER - LEESTOWN","LEXINGTON","KY","40511","38.073859","-84.538381"
"1542602","THE MEDICAL CENTER AT ALBANY","ALBANY","KY","42602","36.6981876250001","-85.147554934"
"3842743","JANE TODD CRAWFORD MEMORIAL HOSPITAL","GREENSBURG","KY","42743","37.2428699220001","-85.494790913"
"6640311","NICHOLAS COUNTY HOSPITAL","CARLISLE","KY","40311","38.315903201","-84.0593476559999"
"6540359","ST. ELIZABETH OWEN","OWENTON","KY","40359","38.542398758","-84.841139431"
"840504","CARDINAL HILL REHABILITATION HOSPITAL","LEXINGTON","KY","40504","38.046972425","-84.541388936"
"8738120","BAPTIST MEMORIAL HOSPITAL","MEMPHIS","TN","38120","35.129521959","-89.861558854"
"7040202","NORTON HOSPITAL","LOUISVILLE","KY","40202","38.2477231460001","-85.7504603039999"
"6142167","MONROE COUNTY MEDICAL CENTER","TOMPKINSVILLE","KY","42167","36.6988824950001","-85.6764662589999"
"9340353","SAINT JOSEPH MOUNT STERLING","MT. STERLING","KY","40353","38.0771212540001","-83.945255796"
"941008","CARROLL COUNTY MEMORIAL HOSPITAL","CARROLLTON","KY","41008","38.6803123390001","-85.168786101"
"4742502","LAKE CUMBERLAND REGIONAL HOSPITAL","SOMERSET","KY","42502","37.08600628","-84.620177051"
"1642064","CRITTENDEN COUNTY HOSPITAL","MARION","KY","42064","37.3292112300001","-88.092575435"
"4240031","KENTUCKY CORRECTIONAL PSYCHIATRIC CENTER","LAGRANGE","KY","40031","38.412076794","-85.422126726"
"8340509","THE RIDGE BEHAVIORAL HEALTH SYSTEM","LEXINGTON","KY","40509","38.004793652","-84.442405521"
"11540508","UK HEALTHCARE GOOD SAMARITAN HOSPITAL","LEXINGTON","KY","40508","38.0423114070001","-84.501038955"
"14537343","PARKRIDGE WEST HOSPITAL","JASPER","TN","37343","35.04710628","-85.629618896"
"9338128","METHODIST HOSPITAL-NORTH","MEMPHIS","TN","38128","35.2340702450001","-89.8928209279999"
"12738104","METHODIST EXTENDED CARE HOSPITAL","MEMPHIS","TN","38104","35.1351495390001","-90.01835992"
"13038017","BAPTIST MEMORIAL HOSPITAL - COLLIERVILLE","COLLIERVILLE","TN","38017","35.049484368","-89.7145128019999"
"13338120","BAPTIST MEMORIAL HOSPITAL FOR WOMEN","MEMPHIS","TN","38120","35.1278750170001","-89.85529467"
"9238138","METHODIST HOSPITAL GERMANTOWN","GERMANTOWN","TN","38138","35.089818161","-89.8083662289999"
"15437334","LINCOLN MEDICAL CENTER","FAYETTEVILLE","TN","37334","35.14960725","-86.555277212"
"3237076","TRISTAR SUMMIT MEDICAL CENTER","HERMITAGE","TN","37076","36.176379426","-86.608375157"
"10537601","JOHNSON CITY SPECIALTY HOSPITAL","JOHNSON CITY","TN","37601","36.323710072","-82.3545313129999"
"10037074","TROUSDALE MEDICAL CENTER","HARTSVILLE","TN","37074","36.38783255","-86.168159927"
"5038063","LAUDERDALE COMMUNITY HOSPITAL","RIPLEY","TN","38063","35.744352517","-89.5496351899999"
"5338261","BAPTIST MEMORIAL HOSPITAL - UNION CITY","UNION CITY","TN","38261","36.414233778","-89.044968581"
"237160","BEDFORD COUNTY MEDICAL CENTER","SHELBYVILLE","TN","37160","35.4934458880001","-86.472473809"
"15537160","TENNOVA HEALTHCARE - SHELBYVILLE","SHELBYVILLE","TN","37160","35.5635327950001","-86.4489559579999"
"5137874","SWEETWATER HOSPITAL ASSOCIATION","SWEETWATER","TN","37874","35.600693844","-84.4642846259999"
"10437604","WOODRIDGE PSYCHIATRIC HOSPITAL","JOHNSON CITY","TN","37604","36.307733076","-82.387721842"
"1038201","MCKENZIE REGIONAL HOSPITAL","MC KENZIE","TN","38201","36.1374273500001","-88.489360333"
"1337879","CLAIBORNE COUNTY HOSPITAL","TAZEWELL","TN","37879","36.4528338850001","-83.572275718"
"12037203","THE WOMEN'S HOSPITAL AT CENTENNIAL","NASHVILLE","TN","37203","36.15366491","-86.806831454"
"1938555","CUMBERLAND MEDICAL CENTER","CROSSVILLE","TN","38555","35.9433250020001","-85.022031362"
"3138363","DECATUR COUNTY GENERAL HOSPITAL","PARSONS","TN","38363","35.6359507010001","-88.122244892"
"2137208","METROPOLITAN NASHVILLE GENERAL HOSPITAL","NASHVILLE","TN","37208","36.166906969","-86.80656112"
"7937814","LAKEWAY REGIONAL HOSPITAL","MORRISTOWN","TN","37814","36.2147333560001","-83.303798912"
"7137402","METROPOLITAN HOSPITAL","CHATTANOOGA","TN","37402","35.0472052600001","-85.303594005"
"1837355","UNITY MEDICAL CENTER","MANCHESTER","TN","37355","35.4968799650001","-86.078401216"
"4338556","TENNOVA HEALTHCARE - JAMESTOWN","JAMESTOWN","TN","38556","36.4323619260001","-84.943175953"
"12237087","VANDERBILT WILSON COUNTY HOSPITAL","LEBANON","TN","37087","36.2216056500001","-86.3276203189999"
"16238485","WAYNE MEDICAL CENTER","WAYNESBORO","TN","38485","35.324752926","-87.756884326"
"11640536","UNIVERSITY OF KY HOSPITAL","LEXINGTON","KY","40536","38.030964612","-84.5074429909999"
"8838138","BAPTIST REHABILITATION-GERMANTOWN","GERMANTOWN","TN","38138","35.092621432","-89.801090204"
"16637604","FRANKLIN WOODS COMMUNITY HOSPITAL","JOHNSON CITY","TN","37604","36.3363038320001","-82.402064466"
"1737388","TENNOVA HEALTHCARE - HARTON","TULLAHOMA","TN","37388","35.382102924","-86.231259821"
"9738105","ST. JOSEPH HOSPITAL","MEMPHIS","TN","38105","35.153273584","-90.0418743019999"
"6738012","HAYWOOD PARK COMMUNITY HOSPITAL","BROWNSVILLE","TN","38012","35.610572244","-89.2429765649999"
"737766","TENNOVA HEALTHCARE - LAFOLLETTE MEDICAL CENTER","LAFOLLETTE","TN","37766","36.3888710420001","-84.111469777"
"15637091","MARSHALL MEDICAL CENTER","LEWISBURG","TN","37091","35.465047487","-86.785490155"
"3140831","HARLAN ARH HOSPITAL","HARLAN","KY","40831","36.809455171","-83.3135983939999"
"3442701","ENCOMPASS HEALTH REHABILITATION HOSPITAL OF LAKEVIEW","ELIZABETHTOWN","KY","42701","37.714635564","-85.8750721709999"
"9040509","SAINT JOSEPH EAST","LEXINGTON","KY","40509","37.9994200950001","-84.439154995"
"3742066","JACKSON PURCHASE MEDICAL CENTER","MAYFIELD","KY","42066","36.759208992","-88.65125908"
"2942102","TRISTAR GREENVIEW REGIONAL HOSPITAL","BOWLING GREEN","KY","42102","36.9650376160001","-86.4359797719999"
"8442103","RIVENDELL BEHAVIORAL HEALTH SERVICES","BOWLING GREEN","KY","42103","36.997072008","-86.383136954"
"12241858","WHITESBURG ARH HOSPITAL","WHITESBURG","KY","41858","37.1129272210001","-82.812521793"
"2840324","GEORGETOWN COMMUNITY HOSPITAL","GEORGETOWN","KY","40324","38.186518506","-84.5609107939999"
"9941017","ST. ELIZABETH EDGEWOOD","EDGEWOOD","KY","41017","39.013178162","-84.562789719"
"4541101","KINGS DAUGHTERS MEDICAL CENTER","ASHLAND","KY","41101","38.469941405","-82.634516334"
"540361","BOURBON COMMUNITY HOSPITAL","PARIS","KY","40361","38.2211939050001","-84.238352412"
"2741042","GATEWAY REHABILITATION HOSPITAL AT FLORENCE","FLORENCE","KY","41042","39.008040398","-84.655139219"
"6442071","MURRAY CALLOWAY COUNTY HOSPITAL","MURRAY","KY","42071","36.6068889060001","-88.309993904"
"2240004","FLAGET MEMORIAL HOSPITAL","BARDSTOWN","KY","40004","37.861651018","-85.523785834"
"6241472","MORGAN COUNTY ARH HOSPITAL","WEST LIBERTY","KY","41472","37.9200331370001","-83.265575509"
"14637317","COPPER BASIN MEDICAL CENTER","COPPERHILL","TN","37317","35.0269471","-84.3857105119999"
"16538104","MEMPHIS VETERANS AFFAIRS MEDICAL CENTER","MEMPHIS","TN","38104","35.143520747","-90.026343679"
"6237841","BIG SOUTH FORK MEDICAL CENTER","ONEIDA","TN","37841","36.504424885","-84.515863673"
"1137643","SYCAMORE SHOALS HOSPITAL","ELIZABETHTON","TN","37643","36.345867056","-82.2500016709999"
"15337110","SAINT THOMAS RIVER PARK HOSPITAL","MC MINNVILLE","TN","37110","35.6998444910001","-85.742978922"
"1438551","CUMBERLAND RIVER HOSPITAL","CELINA","TN","38551","36.544126154","-85.5004989299999"
"11237030","RIVERVIEW REGIONAL MEDICAL CENTER","CARTHAGE","TN","37030","36.2642534570001","-85.949745369"
"7437412","PARKRIDGE EAST HOSPITAL","CHATTANOOGA","TN","37412","34.998802916","-85.2189423629999"
"7537421","PARKRIDGE VALLEY HOSPITAL","CHATTANOOGA","TN","37421","35.026859233","-85.121455827"
"1637355","UNITED REGIONAL MEDICAL CENTER","MANCHESTER","TN","37355","35.4690063850001","-86.0840703379999"
"4238068","METHODIST HEALTHCARE - FAYETTE HOSPITAL","SOMERVILLE","TN","38068","35.246831281","-89.36379663"
"16738019","BAPTIST MEMORIAL HOSPITAL TIPTON","COVINGTON","TN","38019","35.5357101590001","-89.677606689"
"7837404","MEMORIAL HEALTH CARE SYSTEM","CHATTANOOGA","TN","37404","35.0415746140001","-85.2600266219999"
"16138464","SOUTHERN TENNESSEE REGIONAL HEALTH SYSTEM LAWRENCEBURG","LAWRENCEBURG","TN","38464","35.2219545950001","-87.338303332"
"5937748","ROANE MEDICAL CENTER","HARRIMAN","TN","37748","35.934965091","-84.551726413"
"12637375","SOUTHERN TENNESSEE REGIONAL HEALTH SYSTEM SEWANEE","SEWANEE","TN","37375","35.2080633520001","-85.913861391"
"4538343","HUMBOLDT GENERAL HOSPITAL","HUMBOLDT","TN","38343","35.8158468410001","-88.895251334"
"16338358","MILAN GENERAL HOSPITAL","MILAN","TN","38358","35.912286405","-88.754141319"
"4638478","SOUTHERN TENNESSEE REGIONAL HEALTH SYSTEM PULASKI","PULASKI","TN","38478","35.189240941","-87.0041213869999"
"4937061","HOUSTON COUNTY COMMUNITY HOSPITAL","ERIN","TN","37061","36.3201705660001","-87.689643486"
"6437033","SAINT THOMAS HICKMAN HOSPITAL","CENTERVILLE","TN","37033","35.7794869030001","-87.458960114"
"6837857","HAWKINS COUNTY MEMORIAL HOSPITAL","ROGERSVILLE","TN","37857","36.4002192740001","-83.0142335739999"
"11038237","WEST TENNESSEE HEALTHCARE - VOLUNTEER HOSPITAL","MARTIN","TN","38237","36.3347483760001","-88.8684962729999"
"3737916","EAST TENNESSEE CHILDREN'S HOSPITAL","KNOXVILLE","TN","37916","35.956288166","-83.937674777"
"3837923","PARKWEST MEDICAL CENTER","KNOXVILLE","TN","37923","35.917072445","-84.100643793"
"13637934","TENNOVA HEALTHCARE TURKEY CREEK MEDICAL CENTER","KNOXVILLE","TN","37934","35.89849035","-84.144295289"
"13737934","BAPTIST HOSPITAL FOR WOMEN","KNOXVILLE","TN","37934","35.8988413210001","-84.143135302"
"14537684","JAMES H. QUILLEN VA MEDICAL CENTER","MOUNTAIN HOME","TN","37684","36.3091379580001","-82.370206332"
"4737745","GREENVILLE COMMUNITY HOSPITAL","GREENEVILLE","TN","37745","36.1735333660001","-82.790238511"
"10837920","SELECT SPECIALTY HOSPITAL - KNOXVILLE (UT MEDICAL CENTER)","KNOXVILLE","TN","37920","35.939001815","-83.944383815"
"16538120","BAPTIST MEMORIAL RESTORATIVE CARE HOSPITAL","MEMPHIS","TN","38120","35.1290341690001","-89.861588597"
"1693721","PARKRIDGE VALLEY ADULT SERVICES","CHATTANOOGA","TN","37421","35.053720689","-85.143220876"
"17337203","SAINT THOMAS MIDTOWN HOSPITAL","NASHVILLE","TN","37203","36.1539076","-86.802005586"
"17738105","ST. JUDE CHILDREN'S RESEARCH HOSPITAL","MEMPHIS","TN","38105","35.1542158510001","-90.0429022289999"
"17837185","THREE RIVERS HOSPITAL","WAVERLY","TN","37185","36.076031061","-87.792335282"
"18037212","VANDERBILT STALLWORTH REHABILITATION HOSPITAL","NASHVILLE","TN","37212","36.1384162900001","-86.80256887"
"17937129","TRUSTPOINT HOSPITAL","MURFREESBORO","TN","37129","35.863891333","-86.430328056"
"16438138","BAPTIST MEMORIAL REHABILITATION HOSPITAL","GERMANTOWN","TN","38138","35.1144586980001","-89.7996595929999"
"13337129","VA MEDICAL CENTER - ALVIN C. YORK CAMPUS","MURFREESBORO","TN","37129","35.9143077950001","-86.380614501"
"181840121","IRELAND ARMY COMMUNITY HOSPITAL","FORT KNOX","KY","40121","37.9003532","-85.9414374999999"
"181742223","BLANCHFIELD ARMY COMMUNITY HOSPITAL","FORT CAMPBELL","KY","42223","36.6366409","-87.4474845"
"13537212","VA MEDICAL CENTER - NASHVILLE CAMPUS","NASHVILLE","TN","37212","36.141757053","-86.8042392519999"
"9840351","ST. CLAIRE REGIONAL MEDICAL CENTER","MOREHEAD","KY","40351","38.1794704480001","-83.439324254"
"11637660","INDIAN PATH MEDICAL CENTER","KINGSPORT","TN","37660","36.550809026","-82.514276141"
"9038103","LE BONHEUR CHILDREN'S HOSPITAL","MEMPHIS","TN","38103","35.145050795","-90.031801216"
"938344","BAPTIST MEMORIAL HOSPITAL - CARROLL COUNTY","HUNTINGDON","TN","38344","36.0231673430001","-88.4124085879999"
"338320","CAMDEN GENERAL HOSPITAL","CAMDEN","TN","38320","36.0552168230001","-88.1079464859999"
"16737404","ENCOMPASS HEALTH REHABILITATION HOSPITAL OF CHATTANOOGA","CHATTANOOGA","TN","37404","35.032157419","-85.2664472119999"
"16837067","ENCOMPASS HEALTH REHABILITATION HOSPITAL OF FRANKLIN","FRANKLIN","TN","37067","35.919115166","-86.819231007"
"11437660","ENCOMPASS HEALTH REHABILITATION HOSPITAL OF KINGSPORT","KINGSPORT","TN","37660","36.5535642040001","-82.551378404"
"3037421","ERLANGER EAST HOSPITAL","CHATTANOOGA","TN","37421","35.02255862","-85.160624109"
"14437415","ERLANGER NORTH HOSPITAL","CHATTANOOGA","TN","37415","35.123578498","-85.3020270649999"
"14937772","FORT LOUDOUN MEDICAL CENTER","LENOIR CITY","TN","37772","35.8251721670001","-84.2701807939999"
"6938372","HARDIN MEDICAL CENTER","SAVANNAH","TN","38372","35.2279311230001","-88.2303470849999"
"6638351","HENDERSON COUNTY COMMUNITY HOSPITAL","LEXINGTON","TN","38351","35.655301927","-88.398664136"
"8637862","LECONTE MEDICAL CENTER","SEVIERVILLE","TN","37862","35.855923213","-83.5352199769999"
"7237343","MEMORIAL HOSPITAL HIXSON","HIXSON","TN","37343","35.124685476","-85.238080284"
"7337404","PARKRIDGE MEDICAL CENTER","CHATTANOOGA","TN","37404","35.0349294910001","-85.267482278"
"10337601","QUILLEN REHABILITATION HOSPITAL","JOHNSON CITY","TN","37601","36.35377858","-82.3717817"
"81","SAINT FRANCIS HOSPITAL MEMPHIS","MEMPHIS","TN","38119","35.0982050320001","-89.8648751919999"
"16638133","SAINT FRANCIS HOSPITAL BARTLETT","BARTLETT","TN","38133","35.2069920540001","-89.8005827599999"
"12437166","SAINT THOMAS DEKALB HOSPITAL","SMITHVILLE","TN","37166","35.9615082890001","-85.829543454"
"13137203","SAINT THOMAS HOSPITAL FOR SPECIALTY SURGERY","NASHVILLE","TN","37203","36.1550855610001","-86.803255642"
"837190","SAINT THOMAS STONES RIVER HOSPITAL","WOODBURY","TN","37190","35.832710891","-86.071842841"
"11138583","SAINT THOMAS HIGHLANDS HOSPITAL","SPARTA","TN","38583","35.9491612910001","-85.477237147"
"2337205","SAINT THOMAS WEST HOSPITAL","NASHVILLE","TN","37205","36.129401966","-86.844516459"
"17438119","SELECT SPECIALTY HOSPITAL - MEMPHIS","MEMPHIS","TN","38119","35.0982335850001","-89.8640043089999"
"5237043","TENNOVA HEALTHCARE - CLARKSVILLE","CLARKSVILLE","TN","37043","36.5819764020001","-87.270473518"
"537312","TENNOVA HEALTHCARE - CLEVELAND","CLEVELAND","TN","37312","35.194318895","-84.881213652"
"83","TENNOVA HEALTHCARE - CLEVELAND","CLEVELAND","TN","37311","35.177198167","-84.8699056139999"
"1537821","TENNOVA HEALTHCARE - NEWPORT MEDICAL CENTER","NEWPORT","TN","37821","35.964203916","-83.182198673"
"1237015","TRISTAR ASHLAND CITY MEDICAL CENTER","ASHLAND CITY","TN","37015","36.2771195890001","-87.065594728"
"16037055","TRISTAR HORIZON MEDICAL CENTER","DICKSON","TN","37055","36.0733061660001","-87.375727161"
"2537115","TRISTAR SKYLINE MADISON CAMPUS","MADISON","TN","37115","36.2543610980001","-86.682104623"
"2037211","TRISTAR SOUTHERN HILLS MEDICAL CENTER","NASHVILLE","TN","37211","36.076382374","-86.7218921309999"
"9438116","METHODIST HOSPITAL-SOUTH","MEMPHIS","TN","38116","35.032982873","-90.0212006949999"
"13937849","TENNOVA HEALTHCARE NORTH KNOXVILLE MEDICAL CENTER","POWELL","TN","37849","36.052842366","-83.997802755"
"4837743","GREENVILLE COMMUNITY HOSPITAL WEST","GREENEVILLE","TN","37743","36.151299641","-82.84567491"
"12337087","VANDERBILT WILSON COUNTY HOSPITAL","LEBANON","TN","37087","36.203294193","-86.283134667"
"13538237","WEST TENNESSEE HEALTHCARE REHABILITATION HOSPITAL CANE CREEK","MARTIN","TN","38237","36.3325527170001","-88.869910487"
"16438024","WEST TENNESSEE HEALTHCARE DYERSBURG HOSPITAL","DYERSBURG","TN","38024","36.0481855780001","-89.379914415"
"15037804","BLOUNT MEMORIAL HOSPITAL","MARYVILLE","TN","37804","35.756462239","-83.95871505"
"2838104","ENCOMPASS HEALTH REHABILITATION HOSPITAL OF MEMPHIS","MEMPHIS","TN","38104","35.1378002230001","-90.0191809"
"13438128","ENCOMPASS HEALTH REHABILITATION HOSPITAL OF NORTH MEMPHIS","MEMPHIS","TN","38128","35.2372013030001","-89.891940178"
"3937916","FORT SANDERS REGIONAL MEDICAL CENTER","KNOXVILLE","TN","37916","35.9570317210001","-83.9372099029999"
"3537683","JOHNSON COUNTY HEALTH CENTER","MOUNTAIN CITY","TN","37683","36.453555952","-81.797680628"
"5438570","LIVINGSTON REGIONAL HOSPITAL","LIVINGSTON","TN","38570","36.385229108","-85.327584422"
"9138104","METHODIST HEALTHCARE - MEMPHIS HOSPITAL","MEMPHIS","TN","38104","35.1366685450001","-90.019467514"
"14137814","MORRISTOWN-HAMBLEN HEALTHCARE SYSTEM","MORRISTOWN","TN","37814","36.212965696","-83.305316375"
"9538103","REGIONAL ONE HEALTH","MEMPHIS","TN","38103","35.1418039800001","-90.031828834"
"17138103","REGIONAL ONE HEALTH EXTENDED CARE HOSPITAL","MEMPHIS","TN","38103","35.1408426780001","-90.031952566"
"17537849","SELECT SPECIALTY HOSPITAL - NORTH KNOXVILLE","POWELL","TN","37849","36.053499097","-83.9976885409999"
"12537398","SOUTHERN TENNESSEE REGIONAL HEALTH SYSTEM WINCHESTER","WINCHESTER","TN","37398","35.1758866710001","-86.09013143"
"9937066","SUMNER REGIONAL MEDICAL CENTER","GALLATIN","TN","37066","36.390014088","-86.434095825"
"14037760","TENNOVA HEALTHCARE - JEFFERSON MEMORIAL HOSPITAL","JEFFERSON CITY","TN","37760","36.1066384390001","-83.518909411"
"4137920","THE UNIVERSITY OF TENNESSEE MEDICAL CENTER","KNOXVILLE","TN","37920","35.9404473380001","-83.943884128"
"11937203","TRISTAR CENTENNIAL MEDICAL CENTER","NASHVILLE","TN","37203","36.15375182","-86.809004864"
"11837075","TRISTAR HENDERSONVILLE MEDICAL CENTER","HENDERSONVILLE","TN","37075","36.32481862","-86.62223383"
"2637148","TRISTAR PORTLAND MEDICAL PARK","PORTLAND","TN","37148","36.5572915120001","-86.511619961"
"10737167","TRISTAR STONECREST MEDICAL CENTER","SMYRNA","TN","37167","35.9750342580001","-86.565202155"
"10137650","UNICOI COUNTY MEMORIAL HOSPITAL","ERWIN","TN","37650","36.1336207190001","-82.413051583"
"15837232","VANDERBILT UNIVERSITY HOSPITAL","NASHVILLE","TN","37232","36.1408360080001","-86.8021666989999"
"195337650","UNICOI COUNTY HOSPITAL","ERWIN","TN","37650","36.1184450000001","-82.444649"
"187942303","OWENSBORO HEALTH REGIONAL HOSPITAL","OWENSBORO","KY","42303","37.779484499","-87.0642916529999"
"10422146","GERMANTOWN MINOR MEDICAL","GERMANTOWN","TN","38138","35.0940524","-89.8071784"
"11531194","BALLARD COUNTY MEDICAL CLINIC","BARLOW","KY","42024","37.051516","-89.0469345"
"11513132","WICKMAN FAMILY MEDICAL CARE","MEMPHIS","TN","38133","35.203563","-89.7792558"
"10468047","BAPTIST MEMORIAL HEALTH CARE MINOR MEDICAL CENTER - MEMPHIS","MEMPHIS","TN","38111","35.1291921","-89.9524379"
"10470877","UNION CITY URGENT CARE","UNION CITY","TN","38261","36.4156973","-89.0583289"
"11513126","LE BONHEUR URGENT CARE CENTER - CORDOVA","CORDOVA","TN","38016","35.1614831","-89.7941923"
"10470882","LE BONHEUR URGENT CARE CENTER - EAST MEMPHIS","MEMPHIS","TN","38120","35.1082244","-89.8839"
"10844079","CONCENTRA URGENT CARE - MEMPHIS SOUTHEAST","MEMPHIS","TN","38115","35.0401833","-89.8859953"
"11513130","METHODIST MINOR MEDICAL CENTER - HACKS CROSS","MEMPHIS","TN","38125","35.0475346","-89.794055"
"10422154","ROSSVILLE HEALTH CENTER","ROSSVILLE","TN","38066","35.0421698","-89.5571237"
"10194184","URGENT CARE CLINIC","DYERSBURG","TN","38024","36.0525284","-89.4045498"
"11531135","DYERSBURG FAMILY WALK IN CLINIC","DYERSBURG","TN","38024","36.0575815","-89.3570821"
"11521672","METHODIST MINOR MEDICAL CENTER - MIDTOWN","MEMPHIS","TN","38104","35.1348803","-90.0013861"
"10844080","CONCENTRA URGENT CARE - MEMPHIS PRESIDENTS ISLAND","MEMPHIS","TN","38113","35.1081599","-90.0885794"
"11531186","ARLINGTON MEDICAL CLINIC","ARLINGTON","KY","42021","36.7889959","-89.0116724"
"11513129","METHODIST MINOR MEDICAL CENTER - CORDOVA","CORDOVA","TN","38016","35.1616993","-89.7941427"
"10843899","CONCENTRA URGENT CARE - MEMPHIS AIRPORT","MEMPHIS","TN","38132","35.0671342","-89.9891538"
"10844542","BAPTIST MEMORIAL HEALTH CARE MINOR MEDICAL CENTER - BARTLETT","BARTLETT","TN","38133","35.2055574","-89.8159246"
"10192850","QUICKCARE URGENT CARE STATION","MEMPHIS","TN","38103","35.140712","-90.0323439"
"10468040","BAPTIST MEMORIAL HEALTH CARE MINOR MEDICAL CENTER - CORDOVA","CORDOVA","TN","38018","35.1411811","-89.7937895"
"11513123","LE BONHEUR URGENT CARE CENTER - MEMPHIS","MEMPHIS","TN","38125","35.047533","-89.7940531"
"11531164","LAKEWAY URGENT CARE","LENOIR CITY","TN","37772","35.8229426","-84.2674284"
"11241583","FLORENCE URGENT CARE","FLORENCE","KY","41042","39.0071242","-84.6554601"
"11531212","URGENT CARE AT PROVIDENCE","MOUNT JULIET","TN","37122","36.1672262","-86.5172046"
"11531344","BARDSTOWN AMBULATORY CARE","BARDSTOWN","KY","40004","37.8601108","-85.5178339"
"10470878","TRI-COUNTY FAMILY MEDICINE AND URGENT CARE","HUNTINGDON","TN","38344","36.0226264","-88.4140092"
"10467881","PHYSICIANS CARE - CLEVELAND","CLEVELAND","TN","37312","35.1879376","-84.8279784"
"10470872","URGENT CARE MEDICAL AND DIAGNOSTIC","GOODLETTSVILLE","TN","37072","36.3303951","-86.6963845"
"10192192","FIRST CHOICE WALK-IN CLINIC","LEXINGTON","KY","40509","38.0110247","-84.4218564"
"11513085","FIRST ASSIST URGENT CARE OF GRAY","GRAY","TN","37615","36.3989179","-82.4886735"
"11513070","FIRST ASSIST URGENT CARE OF KINGSPORT","KINGSPORT","TN","37660","36.5517084","-82.530653"
"10192186","NORTON IMMEDIATE CARE CENTER - SHEPHERDSVILLE","SHEPHERDSVILLE","KY","40165","38.0056709","-85.6776338"
"10421745","NORTON IMMEDIATE CARE CENTER - FERN CREEK","LOUISVILLE","KY","40291","38.1449465","-85.5884277"
"10844359","BAPTIST PROMPTCARE","LOUISVILLE","KY","40241","38.2918336","-85.5624122"
"10844543","DOCTORS CARE - SANGO CLINIC","CLARKSVILLE","TN","37043","36.5067394","-87.2707978"
"10470263","SPRINGS URGENT CARE","OWENSBORO","KY","42303","37.7587593","-87.0773813"
"11513019","SATELLITE MED","COOKEVILLE","TN","38506","36.1341727","-85.5060739"
"11531106","CLEVELAND CARE FIRST","CLEVELAND","TN","37311","35.1747605","-84.8782043"
"11531129","CUMBERLAND OCCUPATIONAL AND URGENT CARE CENTER","CROSSVILLE","TN","38555","35.943255","-85.0286571"
"11531208","MEDICENTER AND ASSOCIATES","PIGEON FORGE","TN","37863","35.8243472","-83.5760623"
"11531200","B F TAYLOR MEDICAL CLINIC","BURKESVILLE","KY","42717","36.7957235","-85.372281"
"11531348","URGENT MEDICAL CARE","SOMERSET","KY","42501","37.0833713","-84.6164774"
"11531183","BLUEGRASS IMMEDIATE CARE","DANVILLE","KY","40422","37.6590291","-84.7952722"
"11513077","FIRST ASSIST URGENT CARE OF JONESBOROUGH","JONESBOROUGH","TN","37659","36.3006727","-82.4609228"
"10843951","CONCENTRA URGENT CARE - MINEOLA","ERLANGER","KY","41018","39.0573803","-84.6299814"
"10468050","PHYSICIANS CARE - SOUTH PITTSBURG","SOUTH PITTSBURG","TN","37380","34.9981561","-85.7054341"
"10843830","BAPTIST MEDICAL ASSOCIATES","LOUISVILLE","KY","40241","38.3140369","-85.5629755"
"11241468","COOL SPRINGS INTERNAL MEDICINE AND PEDIATRICS CLINIC PROFESSIONAL LIMITED LIABILITY COMPANY","BRENTWOOD","TN","37027","35.9683528","-86.8036426"
"10422151","HARDING MEDICAL CENTER","NASHVILLE","TN","37211","36.0781563","-86.7247889"
"10194191","STONE URGENT CARE AND OCCUPATIONAL MEDICINE PHYSICIANS CARE","NASHVILLE","TN","37211","36.0948671","-86.7366319"
"10421733","NORTON IMMEDIATE CARE CENTER - DORSEY PLAZA","LOUISVILLE","KY","40223","38.2445842","-85.5638099"
"11241528","PATMOS EMERGICLINIC","GREENEVILLE","TN","37745","36.1720628","-82.7997485"
"10843822","SIMPLISTIC URGENT CARE","LOUISVILLE","KY","40204","38.2425601","-85.7253393"
"10193743","NORTON IMMEDIATE CARE CENTER - HIGHLANDS","LOUISVILLE","KY","40205","38.223308","-85.6865813"
"11531417","NORTH LEXINGTON URGENT TREATMENT CLINIC - HAMBURG","LEXINGTON","KY","40509","38.0298362","-84.4199948"
"10843820","CONCENTRA URGENT CARE - LOUISVILLE","LOUISVILLE","KY","40209","38.17684","-85.750144"
"10843823","ONGS URGENT CARE","LOUISVILLE","KY","40243","38.243706","-85.5102496"
"10194195","THE JACKSON CLINIC CONVENIENT CARE - NORTH JACKSON","JACKSON","TN","38305","35.6911912","-88.8575584"
"10194196","THE JACKSON CLINIC CONVENIENT CARE","JACKSON","TN","38301","35.6351264","-88.8297371"
"10421737","TROVER CLINIC","MADISONVILLE","KY","42431","37.3383395","-87.4937515"
"11531422","SUN MEDICAL EXPRESS WALK IN CLINIC - NOLENSVILLE","BRENTWOOD","TN","37027","35.9973802","-86.6913657"
"11241575","FAMILY CARE WALK IN CLINIC","JACKSON","TN","38305","35.695809","-88.8362257"
"10194188","DOCTORS CARE - SAINT BETHLEHEM CLINIC","CLARKSVILLE","TN","37040","36.5702938","-87.3047293"
"11241475","MIDSTATE FAMILY MEDICINE AND URGENT CARE","MURFREESBORO","TN","37128","35.8457138","-86.4459366"
"10192505","PEDIATRIC TWILIGHT CLINIC","LEXINGTON","KY","40536","38.0335252","-84.5081771"
"10192452","CONVENIENT CARE CLINIC","HOPKINSVILLE","KY","42240","36.8607364","-87.4957264"
"10192475","CONVENIENT MEDICAL CARE","LOUISVILLE","KY","40222","38.2824632","-85.6312522"
"10194179","FIRST ASSIST URGENT CARE OF JOHNSON CITY","JOHNSON CITY","TN","37604","36.348846","-82.40226"
"10194193","EAST TOWNE URGENT CARE","KNOXVILLE","TN","37917","36.0300237","-83.883744"
"10843416","MULTICARE - MADISONVILLE","MADISONVILLE","KY","42431","37.3218203","-87.4991469"
"10422153","PARK MED URGENT CARE CENTER - KINGSTON PIKE","KNOXVILLE","TN","37919","35.9232941","-84.0566771"
"10192851","GRACE CLINIC","SODDY DAISY","TN","37379","35.2378204","-85.1970476"
"11531167","PROHEALTH COMMUNITY CARE CLINIC - COLUMBIA","COLUMBIA","TN","38401","35.6344386","-87.0107979"
"10192058","HOLSTON MEDICAL GROUP","KINGSPORT","TN","37660","36.5598691","-82.5527623"
"11521767","NORTON IMMEDIATE CARE CENTER - OLD BROWNSBORO CROSSING","LOUISVILLE","KY","40241","38.31439","-85.5766103"
"11531184","ATHENS WALK IN CLINIC","ATHENS","TN","37303","35.4417715","-84.6362711"
"10421738","FAMILY HEALTH CENTER PORTLAND","LOUISVILLE","KY","40212","38.2704823","-85.7842606"
"10421734","NORTON IMMEDIATE CARE CENTER - LYNDON","LOUISVILLE","KY","40222","38.2690495","-85.6139882"
"11513016","COOKEVILLE FAMILY MEDICINE AND URGENT CARE","COOKEVILLE","TN","38501","36.1656459","-85.5063092"
"10844548","RAPID CARE CLINIC","LAWRENCEBURG","TN","38464","35.2406127","-87.3313438"
"10196537","FIRST CARE MEDICAL CENTER","KNOXVILLE","TN","37912","36.0074423","-83.9669231"
"10192188","CLARK IMMEDIATE CARE","WINCHESTER","KY","40391","37.9881577","-84.2062222"
"10843888","LONDON URGENT CARE","LONDON","KY","40741","37.1201053","-84.0745858"
"10843827","BAPTIST URGENT CARE - MIDDLETOWN","LOUISVILLE","KY","40243","38.2478696","-85.5331103"
"10844083","CONCENTRA URGENT CARE - NASHVILLE CENTRAL","NASHVILLE","TN","37203","36.1564364","-86.8051033"
"11241558","SUMMIT EXPRESS CLINIC - FOUNTAIN CITY","KNOXVILLE","TN","37918","36.0352914","-83.9340314"
"10843410","OHIO VALLEY MEDICAL CENTER","OWENSBORO","KY","42303","37.726395","-87.1217034"
"10467989","MAXCARE URGENT TREATMENT CENTER","SHELBYVILLE","KY","40065","38.2120926","-85.2506297"
"10192318","CARE FIRST - RADCLIFF","RADCLIFF","KY","40160","37.8108189","-85.9480433"
"10467980","FIRST STOP URGENT CARE CENTER","LAGRANGE","KY","40031","38.3969092","-85.3728482"
"11521771","NORTON IMMEDIATE CARE CENTER - DIXIE","LOUISVILLE","KY","40216","38.1818835","-85.8170084"
"10193739","CONVENIENT CARE CENTER","OWENSBORO","KY","42301","37.752717","-87.1229109"
"10422147","PHYSICIANS CARE - HAMILTON PLACE","CHATTANOOGA","TN","37421","35.0343657","-85.1635536"
"11521764","NORTON IMMEDIATE CARE CENTER - TYLER RETAIL VILLAGE","LOUISVILLE","KY","40299","38.1894872","-85.5178727"
"10470279","BEREA URGENT CARE","BEREA","KY","40403","37.5680675","-84.3118971"
"10422142","PARK MED URGENT CARE CENTER - ALCOA","ALCOA","TN","37701","35.7629554","-83.9700436"
"10468042","PHYSICIANS CARE - EAST RIDGE","EAST RIDGE","TN","37412","35.004142","-85.2269659"
"10844547","PHYSICIANS QUALITY CARE","JACKSON","TN","38305","35.6698366","-88.8610271"
"10194178","AMERICARE URGENT CARE","MCMINNVILLE","TN","37110","35.6639336","-85.7874548"
"10843861","BAPTIST URGENT CARE - EASTPOINT","LOUISVILLE","KY","40223","38.281741","-85.5031001"
"10422141","DICKSON MEDICAL ASSOCIATES","DICKSON","TN","37055","36.0733143","-87.3757053"
"10468044","PHYSICIANS CARE - LENOIR CITY","LENOIR CITY","TN","37771","35.8152747","-84.2638784"
"10467987","IMMEDIATE CARE CENTER","OWENSBORO","KY","42303","37.7647326","-87.0991327"
"10421744","EDMONTON PRIMARY CARE","EDMONTON","KY","42129","36.9852305","-85.6314294"
"11513071","PINEY FLATS URGENT CARE MEDICINE","PINEY FLATS","TN","37686","36.4240391","-82.3198081"
"10421743","NORTON IMMEDIATE CARE CENTER - OKOLONA","LOUISVILLE","KY","40219","38.1368802","-85.6870164"
"11241426","NORTHSIDE URGENT CARE INCORPORATED","SHELBYVILLE","TN","37160","35.5074906","-86.4575218"
"10844082","CONCENTRA URGENT CARE - ELM HILL","NASHVILLE","TN","37214","36.1513005","-86.6774655"
"11513086","THERESA BUCKS URGENT CARE AND WALK IN CLINIC","MCMINNVILLE","TN","37110","35.6989564","-85.7786252"
"10467985","PYMA MEDICAL PROFESSIONAL LIMITED LIABILITY COMPANY DOING BUSINESS AS PHYSICIANS EXPRESS CARE","LONDON","KY","40741","37.1508258","-84.1177333"
"10844358","CARE FIRST - ELIZABETHTOWN","ELIZABETHTOWN","KY","42701","37.7183954","-85.9016215"
"11513075","PRO CARE URGENT CARE CENTER","KINGSPORT","TN","37660","36.5488823","-82.522679"
"11513139","FAMILY MEDICAL CARE CENTER","CORRYTON","TN","37721","36.1174337","-83.855328"
"11513141","WESTBROOK MEDICAL CENTER PROFESSIONAL LIMITED LIABILITY COMPANY","KNOXVILLE","TN","37909","35.9406071","-84.0386858"
"11513145","BARFIELD CLINIC PROFESSIONAL LIMITED LIABILITY COMPANY","MURFREESBORO","TN","37127","35.7908294","-86.4019953"
"11513140","FARRAGUT WALK-IN CLINIC","KNOXVILLE","TN","37934","35.8801188","-84.1615717"
"11513134","DOCTORS CARE - KNOXVILLE","KNOXVILLE","TN","37934","35.8917447","-84.1440084"
"10425865","TENNESSEE URGENT CARE ASSOCIATES - ANTIOCH FACILITY","NASHVILLE","TN","37217","36.0765014","-86.6410982"
"10192193","FIRST CHOICE WALK-IN CLINIC","LEXINGTON","KY","40513","38.0141512","-84.5570926"
"10421735","URGENTCARE - BOWLING GREEN","BOWLING GREEN","KY","42103","36.9692438","-86.4325073"
"10422148","PARK MED URGENT CARE CENTER - FORKS OF THE RIVER","KNOXVILLE","TN","37914","35.9597923","-83.8226144"
"10421746","WESTLAKE PRIMARY CARE","COLUMBIA","KY","42728","37.0921694","-85.304499"
"10192165","MEDICAL ASSISTANT PRIMARY AND URGENT CARE CLINIC","MURFREESBORO","TN","37129","35.8354688","-86.4096399"
"10422155","CONVENIENT CARE CLINIC","COOKEVILLE","TN","38501","36.1550583","-85.499028"
"10194419","SECOND SHIFT URGENT CARE CLINIC","HENDERSON","KY","42420","37.8555724","-87.5805982"
"10468049","AMERICAS FAMILY DOCTORS WALK-IN CLINIC OF SMYRNA","SMYRNA","TN","37167","35.9754476","-86.5630939"
"10194183","AMERICAS FAMILY DOCTORS WALK-IN CLINIC OF BRENTWOOD","BRENTWOOD","TN","37027","36.0395494","-86.815758"
"11241522","SUMMIT EXPRESS CLINIC - DEANE HILL","KNOXVILLE","TN","37919","35.929565","-84.0256771"
"10193737","PARK DUVALLE COMMUNITY HEALTH CENTER","LOUISVILLE","KY","40211","38.2273627","-85.8071862"
"11531105","BRADLEY URGENT CARE","CLEVELAND","TN","37312","35.1998892","-84.8456753"
"11531136","WINCHESTER URGENT CARE","WINCHESTER","TN","37398","35.1728029","-86.0769871"
"11531158","EAST WOOD CLINIC - PARIS URGENT CARE","PARIS","TN","38242","36.3080376","-88.2966078"
"11531162","PHYSICIANS MEDICAL","FAYETTEVILLE","TN","37334","35.0566764","-86.5738555"
"11531134","CROSSVILLE MEDICAL GROUP WALK IN CLINIC","CROSSVILLE","TN","38555","35.9449233","-85.0266806"
"11531172","GALLATIN URGENT CARE","GALLATIN","TN","37066","36.381141","-86.4658054"
"11531176","GLASGOW URGENT CARE","GLASGOW","KY","42141","36.9905387","-85.9318715"
"11531128","PHYSICIANS MEDICAL WALK IN CARE","MANCHESTER","TN","37355","35.4629454","-86.0889537"
"11531169","BICHON URGENT CARE","GALLATIN","TN","37066","36.3766441","-86.4796261"
"11531107","FIRST ASSIST URGENT CARE OF ELIZABETHTON","ELIZABETHTON","TN","37643","36.3449955","-82.239805"
"11531139","PROMPT FAMILY CARE","MORRISTOWN","TN","37813","36.2026449","-83.3097382"
"11531163","GLASGOW IMMEDIATE CARE CENTER","GLASGOW","KY","42141","36.9909484","-85.9318902"
"11531127","NATIONAL URGENT CARE CLINIC","TULLAHOMA","TN","37388","35.3822172","-86.2282614"
"11531131","FAMILY WALK IN CLINIC","CROSSVILLE","TN","38555","35.9590181","-85.0328103"
"11531132","QUALITY MEDICAL CENTER","CROSSVILLE","TN","38555","35.9740409","-85.037399"
"11531191","PROMPT FAMILY CARE - SOUTH","MORRISTOWN","TN","37813","36.2034496","-83.2863497"
"11531174","NATIONAL URGENT CARE CLINIC","PORTLAND","TN","37148","36.5864033","-86.5196592"
"11531175","FIRST FAMILY MEDICAL","SAVANNAH","TN","38372","35.2379303","-88.2304741"
"11241420","TAKOMA MEDICAL ASSOCIATES","GREENEVILLE","TN","37743","36.1502247","-82.8452682"
"11531188","COMMUNITY CARE WALK IN CLINIC","HARRIMAN","TN","37748","35.8945486","-84.6147438"
"11531192","WEST WILSON WALK IN CLINIC","MOUNT JULIET","TN","37122","36.2264498","-86.5149107"
"11531187","BARTLETT PLACE MEDICAL GROUP","MORRISTOWN","TN","37813","36.2026304","-83.3179165"
"11531185","ATHENS FAMILY PRACTICE WALK IN CLINIC","ETOWAH","TN","37331","35.3425608","-84.5213401"
"10194438","GREENEVILLE URGENT CARE","GREENEVILLE","TN","37745","36.1767598","-82.792043"
"11531189","SUN MEDICAL EXPRESS WALK IN CLINIC - HENDERSONVILLE","HENDERSONVILLE","TN","37075","36.3256278","-86.5627954"
"11531202","DOCTORS OFFICE WALK IN CLINIC","LEBANON","TN","37087","36.2190915","-86.3300518"
"11531161","ADVANCED FAMILY AND URGENT CARE CLINIC","FAYETTEVILLE","TN","37334","35.1562121","-86.5550558"
"10843952","CONCENTRA URGENT CARE - FLORENCE","INDEPENDENCE","KY","41051","38.9541656","-84.6158315"
"10193746","COLD SPRING URGENT CARE","NEWPORT","KY","41076","39.0281919","-84.4493519"
"10193137","NORTH LEXINGTON URGENT TREATMENT CLINIC - GEORGETOWN","GEORGETOWN","KY","40324","38.2130026","-84.5464363"
"10422139","PARK MED URGENT CARE CENTER - OAK RIDGE","OAK RIDGE","TN","37830","36.0099226","-84.2656216"
"10194197","BEDFORD URGENT CARE","SHELBYVILLE","TN","37160","35.5062233","-86.4556863"
"11531190","PORTLAND FAMILY CARE AND WALK IN CLINIC","PORTLAND","TN","37148","36.5744513","-86.5140033"
"11531204","FAMILY MEDICAL ASSOCIATES","LEBANON","TN","37087","36.2198599","-86.3293115"
"11513049","PROHEALTH COMMUNITY CARE CLINIC - NASHVILLE","NASHVILLE","TN","37211","36.0761411","-86.722468"
"11531181","CANNONSBURG PRIMARY URGENT CARE","ASHLAND","KY","41102","38.3898785","-82.7124616"
"11531193","DROVER CLINIC - WALK IN CLINIC","HOPKINSVILLE","KY","42240","36.8326594","-87.4688403"
"11531203","NORTH GARRARD FAMILY MEDICAL CENTER","LANCASTER","KY","40444","37.6994532","-84.6615744"
"11531160","THE MEDICAL CENTER AT SCOTTSVILLE - RURAL HEALTH CLINIC","SCOTTSVILLE","KY","42164","36.761138","-86.2160193"
"11531341","TAYLOR REGIONAL HOSPITAL URGENT CARE CENTER","GREENSBURG","KY","42743","37.2847602","-85.4854966"
"11531137","HEALTHSTAR PHYSICIANS URGENT CARE CLINIC","MORRISTOWN","TN","37813","36.2103777","-83.2948547"
"11531166","FAMILY HEALTH GROUP WALK IN CLINIC","SPRING HILL","TN","37174","35.7458989","-86.9374685"
"11531345","FLAGET IMMEDIATE CARE CLINIC","BARDSTOWN","KY","40004","37.8234809","-85.4560157"
"11531350","GEORGETOWN URGENT CARE","GEORGETOWN","KY","40324","38.2305013","-84.5387158"
"11531349","EAGLE FAMILY AND URGENT CARE CENTER","BEAVER DAM","KY","42320","37.4164951","-86.8780608"
"11241482","SUN MEDICAL EXPRESS WALK IN CLINIC - MURFREESBORO","MURFREESBORO","TN","37129","35.8883717","-86.3828221"
"10422140","MADISON MINOR MEDICAL CENTER","MADISON","TN","37115","36.2791674","-86.708492"
"10468048","GET WELL CLINICS","MURFREESBORO","TN","37128","35.8448861","-86.4450692"
"11513068","WALK IN MEDICAL CENTER OF COOL SPRINGS","FRANKLIN","TN","37067","35.9564212","-86.802733"
"10468043","PHYSICIANS CARE - HIXSON","HIXSON","TN","37343","35.1181175","-85.2493815"
"10192277","GREENWOOD URGENT CLINIC","BOWLING GREEN","KY","42104","36.9292475","-86.413158"
"10843902","CONCENTRA URGENT CARE - RIVERGATE","MADISON","TN","37115","36.2954378","-86.6987327"
"10422152","HALLS WALK-IN MEDICAL CENTER","KNOXVILLE","TN","37918","36.0751627","-83.9275256"
"10193742","ACURECARE OF ELIZABETHTOWN","ELIZABETHTOWN","KY","42701","37.732622","-85.8465498"
"10844084","CONCENTRA URGENT CARE - NASHVILLE SOUTH","NASHVILLE","TN","37204","36.083947","-86.7611434"
"10194187","PHYSICIANS URGENT CARE","COOKEVILLE","TN","38501","36.1672419","-85.5120583"
"10844081","CONCENTRA URGENT CARE - MURFREESBORO","MURFREESBORO","TN","37129","35.8588527","-86.3927993"
"10422149","TENNESSEE URGENT CARE ASSOCIATES - WHITE BRIDGE ROAD FACILITY","NASHVILLE","TN","37209","36.1478121","-86.8582834"
"10468045","TENNESSEE URGENT CARE ASSOCIATES - RIVERGATE FACILITY","MADISON","TN","37115","36.2944971","-86.7020686"
"10192084","TENNESSEE URGENT CARE ASSOCIATES - SMYRNA FACILITY","SMYRNA","TN","37167","35.9602664","-86.5218633"
"10467983","NORTH LEXINGTON URGENT TREATMENT CLINIC - CUSTER","LEXINGTON","KY","40517","37.9869903","-84.4598407"
"10467986","NORTH LEXINGTON URGENT TREATMENT CLINIC - NICHOLASVILLE","NICHOLASVILLE","KY","40356","37.9027949","-84.5827092"
"10193750","DOCTORS URGENT CARE OFFICES - ERLANGER","ERLANGER","KY","41018","39.0283807","-84.6184936"
"11241512","URGENT CARE FAMILY MEDICINE","CHATTANOOGA","TN","37421","34.9991556","-85.1339493"
"10844549","THE JACKSON CLINIC CONVENIENT CARE - SOUTH JACKSON","JACKSON","TN","38301","35.5590247","-88.8133269"
"11241578","MADISON FAMILY WALK IN CLINIC","JACKSON","TN","38301","35.5656219","-88.8132117"
"11241557","SUMMIT EXPRESS CLINIC - FARRAGUT","FARRAGUT","TN","37934","35.8926849","-84.1738041"
"10422143","MED ONE","BRISTOL","TN","37620","36.567088","-82.2018035"
"10468041","PHYSICIANS CARE - DAYTON","DAYTON","TN","37321","35.4921565","-85.0081004"
"11513118","MUSIC VALLEY MEDICAL CENTER","NASHVILLE","TN","37214","36.2199022","-86.6967707"
"10467982","NORTH LEXINGTON URGENT TREATMENT CLINIC - BOARDWALK","LEXINGTON","KY","40511","38.0722683","-84.4823534"
"10467981","NORTH LEXINGTON URGENT TREATMENT CLINIC - DOVE RUN","LEXINGTON","KY","40502","37.9965081","-84.494106"
